[{"OBJECT_NAME":"STARLINK-35904","OBJECT_ID":"2025-271L","EPOCH":"2026-03-09T11:33:48.525696","MEAN_MOTION":15.30193865,"ECCENTRICITY":9.943e-5,"INCLINATION":53.1575,"RA_OF_ASC_NODE":140.9863,"ARG_OF_PERICENTER":76.5963,"MEAN_ANOMALY":283.5148,"EPHEMERIS_TYPE":0,"CLASSIFICATION_TYPE":"U","NORAD_CAT_ID":66627,"ELEMENT_SET_NO":999,"REV_AT_EPOCH":1749,"BSTAR":0.001243665,"MEAN_MOTION_DOT":0.00036649,"MEAN_MOTION_DDOT":0},{"OBJECT_NAME":"OBJECT F","OBJECT_ID":"2021-022F","EPOCH":"2026-03-09T23:37:37.165152","MEAN_MOTION":15.31317672,"ECCENTRICITY":0.00120882,"INCLINATION":97.3982,"RA_OF_ASC_NODE":329.8375,"ARG_OF_PERICENTER":85.9268,"MEAN_ANOMALY":274.3355,"EPHEMERIS_TYPE":0,"CLASSIFICATION_TYPE":"U","NORAD_CAT_ID":47937,"ELEMENT_SET_NO":999,"REV_AT_EPOCH":27452,"BSTAR":0.00038690553,"MEAN_MOTION_DOT":0.00011656,"MEAN_MOTION_DDOT":0}]
